[{"OBJECT_NAME":"STARLINK-5606","OBJECT_ID":"2023-028AC","EPOCH":"2026-03-09T22:10:22.085472","MEAN_MOTION":14.98333014,"ECCENTRICITY":0.0003132,"INCLINATION":69.9999,"RA_OF_ASC_NODE":224.0478,"ARG_OF_PERICENTER":271.2549,"MEAN_ANOMALY":88.8251,"EPHEMERIS_TYPE":0,"CLASSIFICATION_TYPE":"U","NORAD_CAT_ID":55767,"ELEMENT_SET_NO":999,"REV_AT_EPOCH":16654,"BSTAR":4.4871917e-5,"MEAN_MOTION_DOT":4.42e-6,"MEAN_MOTION_DDOT":0},{"OBJECT_NAME":"CZ-4B DEB","OBJECT_ID":"2006-015C","EPOCH":"2026-03-08T07:50:56.789952","MEAN_MOTION":14.91364963,"ECCENTRICITY":0.00849927,"INCLINATION":97.8628,"RA_OF_ASC_NODE":27.0975,"ARG_OF_PERICENTER":296.8782,"MEAN_ANOMALY":62.3767,"EPHEMERIS_TYPE":0,"CLASSIFICATION_TYPE":"U","NORAD_CAT_ID":29536,"ELEMENT_SET_NO":999,"REV_AT_EPOCH":4888,"BSTAR":0.0026311155,"MEAN_MOTION_DOT":0.00028164,"MEAN_MOTION_DDOT":0}]
